NOAA 15                 
1 25338U 98030A   22223.56463934  .00000115  00000+0  66294-4 0  9999
2 25338  98.6416 252.3720 0011287 132.9945 227.2183 14.26159705260878
NOAA 18                 
1 28654U 05018A   22223.51909178  .00000113  00000+0  84989-4 0  9996
2 28654  98.9465 293.9048 0014545 171.9469 188.1938 14.12762877887757
NOAA 19                 
1 33591U 09005A   22223.52662315  .00000123  00000+0  91348-4 0  9990
2 33591  99.1449 258.8112 0014457  37.2535 322.9636 14.12597112695961
METOP-B                 
1 38771U 12049A   22223.54320734  .00000054  00000+0  44703-4 0  9991
2 38771  98.6922 282.4708 0000528 122.7645   9.2460 14.21500506513562
SARAL                   
1 39086U 13009A   22223.51729120  .00000034  00000+0  29055-4 0  9998
2 39086  98.5486  48.3392 0002304  97.6960 262.4485 14.32056074494362
METOP-C                 
1 43689U 18087A   22223.48399655  .00000053  00000+0  44079-4 0  9999
2 43689  98.6804 282.5643 0001861 220.1792 139.9248 14.21500511195120
ANGELS                  
1 44876U 19092D   22223.50553431  .00001979  00000+0  10013-3 0  9990
2 44876  97.4753  46.2121 0012475 159.2959 200.8783 15.18140119146595
